{
"type": "FeatureCollection",
"name": "YortaYorta_Limits",
"crs": { "type": "name", "properties": { "name": "urn:ogc:def:crs:OGC:1.3:CRS84" } },
"features": [
{ "type": "Feature", "properties": { "id": null }, "geometry": { "type": "MultiPolygon", "coordinates": [ [ [ [ 144.18336701028781, -35.823075689692764 ], [ 144.265110052346159, -35.787313108792233 ], [ 144.357070974661809, -35.754104997956027 ], [ 144.45414083710611, -35.728560297312796 ], [ 144.510339178521235, -35.713233476926852 ], [ 144.59974563077256, -35.692797716412265 ], [ 144.681488672830909, -35.669807485833353 ], [ 144.773449595146559, -35.644262785190115 ], [ 144.842420286883282, -35.623827024675528 ], [ 144.919054388812981, -35.60339126416094 ], [ 144.959925909842156, -35.590618913839322 ], [ 145.034005541707558, -35.570183153324734 ], [ 145.159174574859406, -35.531866102359878 ], [ 145.243472086982081, -35.506321401716647 ], [ 145.350759829683653, -35.478222231009084 ], [ 145.419730521420405, -35.457786470494497 ], [ 145.51935485392903, -35.434796239915585 ], [ 145.618979186437628, -35.411806009336672 ], [ 145.695613288367355, -35.406697069208029 ], [ 145.744148219589505, -35.406697069208029 ], [ 145.818227851454878, -35.419469419529648 ], [ 145.884644073127276, -35.434796239915585 ], [ 145.925515594156451, -35.439905180044235 ], [ 146.020030986536426, -35.455232000430172 ], [ 146.096665088466153, -35.462895410623148 ], [ 146.160526840074226, -35.475667760944759 ], [ 146.229497531810978, -35.496103521459354 ], [ 146.2882503432904, -35.511430341845291 ], [ 146.369993385348749, -35.536975042488528 ], [ 146.438964077085501, -35.557410803003116 ], [ 146.507934768822224, -35.577846563517703 ], [ 146.561578640173025, -35.605945734225266 ], [ 146.605004631266524, -35.634044904932821 ], [ 146.66120297268165, -35.667253015769028 ], [ 146.696965553582174, -35.69535218647659 ], [ 146.727619194354048, -35.718342417055496 ], [ 146.737837074611349, -35.761768408148995 ], [ 146.732728134482699, -35.792422048920884 ], [ 146.730173664418373, -35.835848040014383 ], [ 146.727619194354048, -35.874165090979233 ], [ 146.717401314096776, -35.912482141944089 ], [ 146.707183433839475, -35.945690252780295 ], [ 146.6995200236465, -35.976343893552176 ], [ 146.686747673324874, -36.001888594195414 ], [ 146.671420852938951, -36.024878824774326 ], [ 146.66120297268165, -36.03509670503162 ], [ 146.653539562488675, -36.068304815867826 ], [ 146.643321682231374, -36.096403986575382 ], [ 146.638212742102723, -36.129612097411588 ], [ 146.635658272038398, -36.157711268119151 ], [ 146.627994861845451, -36.190919378955357 ], [ 146.627994861845451, -36.221573019727238 ], [ 146.627994861845451, -36.247117720370468 ], [ 146.627994861845451, -36.267553480885063 ], [ 146.620331451652476, -36.293098181528293 ], [ 146.610113571395175, -36.339078642686118 ], [ 146.589677810880573, -36.387613573908268 ], [ 146.566687580301675, -36.4233761548088 ], [ 146.530924999401151, -36.44892085545203 ], [ 146.46706324779305, -36.471911086030943 ], [ 146.415973846506574, -36.489792376481205 ], [ 146.334230804448225, -36.515337077124443 ], [ 146.249933292325551, -36.533218367574712 ], [ 146.168190250267202, -36.556208598153617 ], [ 146.053239097372654, -36.58430776886118 ], [ 145.948505824735378, -36.612406939568736 ], [ 145.859099372484053, -36.637951640211973 ], [ 145.762029510039753, -36.663496340855211 ], [ 145.682840938045729, -36.691595511562767 ], [ 145.639414946952229, -36.696704451691417 ], [ 145.60109789598738, -36.706922331948711 ], [ 145.56278084502253, -36.722249152334648 ], [ 145.501473563478754, -36.732467032591941 ], [ 145.452938632256604, -36.74523938291356 ], [ 145.401849230970129, -36.747793852977885 ], [ 145.355868769812304, -36.742684912849242 ], [ 145.312442778718804, -36.732467032591941 ], [ 145.266462317560979, -36.706922331948711 ], [ 145.143847754473455, -36.637951640211973 ], [ 145.062104712415106, -36.581753298796855 ], [ 144.990579550614058, -36.54088177776768 ], [ 144.954816969713505, -36.507673666931474 ], [ 144.926717799005957, -36.49234684654553 ], [ 144.888400748041107, -36.471911086030943 ], [ 144.844974756947607, -36.436148505130411 ], [ 144.796439825725457, -36.408049334422856 ], [ 144.750459364567632, -36.390168043972594 ], [ 144.707033373474133, -36.37484122358665 ], [ 144.661052912316308, -36.341633112750444 ], [ 144.584418810386609, -36.282880301271 ], [ 144.492457888070959, -36.213909609534269 ], [ 144.438814016720158, -36.160265738183469 ], [ 144.403051435819634, -36.134721037540238 ], [ 144.328971803954261, -36.068304815867826 ], [ 144.295763693118033, -36.02998776490297 ], [ 144.27532793260346, -36.019769884645676 ], [ 144.257446642153184, -35.994225184002438 ], [ 144.239565351702936, -35.978898363616501 ], [ 144.229347471445635, -35.973789423487851 ], [ 144.224238531316985, -35.932917902458676 ], [ 144.22168406125266, -35.907373201815439 ], [ 144.193584890545111, -35.861392740657614 ], [ 144.175703600094835, -35.840956980143027 ], [ 144.18336701028781, -35.823075689692764 ] ] ] ] } }
]
}
